API VERSION: 1.2
API SOURCE: NASA/JPL Horizons API



*******************************************************************************
Ephemeris / API_USER Fri Apr  3 11:25:26 2026 Pasadena, USA      / Horizons
*******************************************************************************
Target body name: Neptune (899)                   {source: nep097_merged}
Center body name: Sun (10)                        {source: nep097_merged}
Center-site name: BODY CENTER
*******************************************************************************
Start time      : A.D. 2066-Feb-05 00:29:59.9997 TDB
Stop  time      : A.D. 2066-Feb-07 00:29:59.9997 TDB
Step-size       : 60 minutes
*******************************************************************************
Center geodetic : 0.0, 0.0, 0.0                   {E-lon(deg),Lat(deg),Alt(km)}
Center cylindric: 0.0, 0.0, 0.0                   {E-lon(deg),Dxy(km),Dz(km)}
Center radii    : 695700.0, 695700.0, 695700.0 km {Equator_a, b, pole_c}
Output units    : AU-D
Calendar mode   : Mixed Julian/Gregorian
Output type     : GEOMETRIC cartesian states
Output format   : 3 (position, velocity, LT, range, range-rate)
Reference frame : Ecliptic of J2000.0
*******************************************************************************
            JDTDB,            Calendar Date (TDB),                      X,                      Y,                      Z,                     VX,                     VY,                     VZ,                     LT,                     RG,                     RR,
**************************************************************************************************************************************************************************************************************************************************************************
$$SOE
2475687.770833330, A.D. 2066-Feb-06 06:29:59.9997, -7.869800868372198E-04,  2.987988802262770E+01, -6.153648314832605E-01, -3.152792421258635E-03,  1.626107262403713E-05,  7.252665351930542E-05,  1.726084343531620E-01,  2.988622396255396E+01,  1.484730431728440E-05,
2475687.812499997, A.D. 2066-Feb-06 07:29:59.9997, -9.183464435686133E-04,  2.987988870028598E+01, -6.153618092343792E-01, -3.152792569299736E-03,  1.626657565310660E-05,  7.254120219708168E-05,  1.726084379284032E-01,  2.988622458158779E+01,  1.486637227301781E-05,
2475687.854166663, A.D. 2066-Feb-06 08:29:59.9997, -1.049712789820078E-03,  2.987988937817961E+01, -6.153587863908710E-01, -3.152791916365804E-03,  1.627236253808791E-05,  7.255518986521856E-05,  1.726084415082694E-01,  2.988622520142241E+01,  1.488573555133880E-05,
2475687.895833330, A.D. 2066-Feb-06 09:29:59.9997, -1.181079091998523E-03,  2.987989005631958E+01, -6.153557629768013E-01, -3.152790452261370E-03,  1.627839359796596E-05,  7.256858406905361E-05,  1.726084450928270E-01,  2.988622582206931E+01,  1.490535513314727E-05,
2475687.937499997, A.D. 2066-Feb-06 10:29:59.9997, -1.312445316128833E-03,  2.987989073471532E+01, -6.153527390175165E-01, -3.152788168897854E-03,  1.628463387461311E-05,  7.258135559439332E-05,  1.726084486821332E-01,  2.988622644353843E+01,  1.492519665436470E-05,
2475687.979166663, A.D. 2066-Feb-06 11:29:59.9997, -1.443811427947171E-03,  2.987989141337488E+01, -6.153497145395094E-01, -3.152785060530658E-03,  1.629105308160992E-05,  7.259347858656597E-05,  1.726084522762379E-01,  2.988622706583836E+01,  1.494523035238417E-05,
2475688.020833330, A.D. 2066-Feb-06 12:29:59.9997, -1.575177393000610E-03,  2.987989209230519E+01, -6.153466895702876E-01, -3.152781123825220E-03,  1.629762524110587E-05,  7.260493048711275E-05,  1.726084558751842E-01,  2.988622768897660E+01,  1.496543070437912E-05,
2475688.062499997, A.D. 2066-Feb-06 13:29:59.9997, -1.706543176746040E-03,  2.987989277151214E+01, -6.153436641382308E-01, -3.152776357756633E-03,  1.630432800586892E-05,  7.261569178818099E-05,  1.726084594790095E-01,  2.988622831295960E+01,  1.498577575461338E-05,
2475688.104166663, A.D. 2066-Feb-06 14:29:59.9997, -1.837908744641731E-03,  2.987989345100073E+01, -6.153406382724660E-01, -3.152770763366282E-03,  1.631114167706917E-05,  7.262574561707320E-05,  1.726084630877462E-01,  2.988622893779298E+01,  1.500624614103426E-05,
2475688.145833330, A.D. 2066-Feb-06 15:29:59.9997, -1.969274062226562E-03,  2.987989413077523E+01, -6.153376120027926E-01, -3.152764343420596E-03,  1.631804794326821E-05,  7.263507717742059E-05,  1.726084667014222E-01,  2.988622956348160E+01,  1.502682384606797E-05,
2475688.187499997, A.D. 2066-Feb-06 16:29:59.9997, -2.100639095184165E-03,  2.987989481083909E+01, -6.153345853595841E-01, -3.152757102041204E-03,  1.632502838254258E-05,  7.264367308908707E-05,  1.726084703200613E-01,  2.988623019002954E+01,  1.504749071267148E-05,
2475688.229166663, A.D. 2066-Feb-06 17:29:59.9997, -2.232003809392646E-03,  2.987989549119501E+01, -6.153315583737651E-01, -3.152749044402700E-03,  1.633206278765749E-05,  7.265152068617025E-05,  1.726084739436826E-01,  2.988623081744012E+01,  1.506822678432806E-05,
2475688.270833330, A.D. 2066-Feb-06 18:29:59.9997, -2.363368170965254E-03,  2.987989617184475E+01, -6.153285310767623E-01, -3.152740176623751E-03,  1.633912739372432E-05,  7.265860735134872E-05,  1.726084775723000E-01,  2.988623144571574E+01,  1.508900854680490E-05,
2475688.312499997, A.D. 2066-Feb-06 19:29:59.9997, -2.494732146293265E-03,  2.987989685278898E+01, -6.153255035005685E-01, -3.152730506009477E-03,  1.634619310882423E-05,  7.266491998533242E-05,  1.726084812059211E-01,  2.988623207485773E+01,  1.510980717012068E-05,
2475688.354166663, A.D. 2066-Feb-06 20:29:59.9997, -2.626095702109506E-03,  2.987989753402702E+01, -6.153224756777050E-01, -3.152720041837871E-03,  1.635322387065878E-05,  7.267044473230148E-05,  1.726084848445459E-01,  2.988623270486608E+01,  1.513058687129903E-05,
2475688.395833330, A.D. 2066-Feb-06 21:29:59.9997, -2.757458805599961E-03,  2.987989821555653E+01, -6.153194476413153E-01, -3.152708796920525E-03,  1.636017527639748E-05,  7.267516710597183E-05,  1.726084884881646E-01,  2.988623333573910E+01,  1.515130354210951E-05,
2475688.437499997, A.D. 2066-Feb-06 22:29:59.9997, -2.888821424601142E-03,  2.987989889737312E+01, -6.153164194251274E-01, -3.152696790208086E-03,  1.636699365853230E-05,  7.267907268630138E-05,  1.726084921367558E-01,  2.988623396747309E+01,  1.517190381112380E-05,
2475688.479166663, A.D. 2066-Feb-06 23:29:59.9997, -3.020183527933139E-03,  2.987989957946995E+01, -6.153133910634510E-01, -3.152684050753639E-03,  1.637361580671897E-05,  7.268214858384886E-05,  1.726084957902843E-01,  2.988623460006193E+01,  1.519232473603757E-05,
2475688.520833330, A.D. 2066-Feb-07 00:29:59.9997, -3.151545084719202E-03,  2.987990026183928E+01, -6.153103625908941E-01, -3.152670533970591E-03,  1.638014745953580E-05,  7.268441165091364E-05,  1.726084994487092E-01,  2.988623523349857E+01,  1.521267166809259E-05,
